[{"OBJECT_NAME":"CUBESX-HSE 3 (RS42S)","OBJECT_ID":"2023-091N","EPOCH":"2026-03-09T22:57:25.321248","MEAN_MOTION":15.286147,"ECCENTRICITY":0.00127191,"INCLINATION":97.5203,"RA_OF_ASC_NODE":133.4295,"ARG_OF_PERICENTER":86.5376,"MEAN_ANOMALY":273.7318,"EPHEMERIS_TYPE":0,"CLASSIFICATION_TYPE":"U","NORAD_CAT_ID":57178,"ELEMENT_SET_NO":999,"REV_AT_EPOCH":14925,"BSTAR":0.00059055694,"MEAN_MOTION_DOT":0.00016417,"MEAN_MOTION_DDOT":0},{"OBJECT_NAME":"STARLINK-34555","OBJECT_ID":"2025-139B","EPOCH":"2026-03-09T10:29:16.789632","MEAN_MOTION":15.30202868,"ECCENTRICITY":0.00011904,"INCLINATION":53.158,"RA_OF_ASC_NODE":128.3422,"ARG_OF_PERICENTER":84.8527,"MEAN_ANOMALY":275.261,"EPHEMERIS_TYPE":0,"CLASSIFICATION_TYPE":"U","NORAD_CAT_ID":64665,"ELEMENT_SET_NO":999,"REV_AT_EPOCH":4014,"BSTAR":0.00049860117,"MEAN_MOTION_DOT":0.00014438,"MEAN_MOTION_DDOT":0}]
